OBJECT_NAME,OBJECT_ID,EPOCH,MEAN_MOTION,ECCENTRICITY,INCLINATION,RA_OF_ASC_NODE,ARG_OF_PERICENTER,MEAN_ANOMALY,EPHEMERIS_TYPE,CLASSIFICATION_TYPE,NORAD_CAT_ID,ELEMENT_SET_NO,REV_AT_EPOCH,BSTAR,MEAN_MOTION_DOT,MEAN_MOTION_DDOT
TELSTAR 12V,2015-068A,2026-07-14T20:44:38.627808,1.00270992,.00020838,0.0031,117.3123,352.9823,118.5833,0,U,41036,999,3890,0,-.128E-5,0
ELEKTRO-L 2,2015-074A,2026-07-14T09:55:32.085120,1.00272099,.00010268,6.7595,70.1832,212.6794,143.7919,0,U,41105,999,3877,0,-.129E-5,0
COSMOS 2513,2015-075A,2026-07-14T21:45:21.458304,1.00270963,.00025067,0.0646,103.7923,343.4046,252.1334,0,U,41121,999,3882,0,-.147E-5,0
EXPRESS-AMU1,2015-082A,2026-07-14T11:52:41.604672,1.00273200,.00023226,0.0207,74.9447,48.3531,23.3221,0,U,41191,999,3854,0,.148E-5,0
GAOFEN-4,2015-083A,2026-07-13T16:26:26.113344,1.00274923,.00039405,0.4223,83.7871,124.9375,75.1281,0,U,41194,999,3879,0,-.34E-5,0
BELINTERSAT-1,2016-001A,2026-07-14T22:53:31.284384,1.00273029,.00018357,0.0549,249.5374,182.0826,256.0604,0,U,41238,999,3851,0,.98E-6,0
IRNSS-1E,2016-003A,2026-07-13T01:01:03.714240,1.00278688,.00189772,33.2887,59.3748,176.6620,181.8769,0,U,41241,999,3833,0,-.321E-5,0
EUTELSAT 9B,2016-005A,2026-07-14T18:35:31.831872,1.00270507,.00010261,0.0357,60.2932,43.5033,116.6939,0,U,41310,999,3839,0,.53E-6,0
SES-9,2016-013A,2026-07-14T19:03:57.672000,1.00269256,.00020346,0.0151,336.1182,126.6757,224.1450,0,U,41380,999,3771,0,-.353E-5,0
EUTELSAT 65 WEST A,2016-014A,2026-07-14T01:07:52.476096,1.00269606,.00020228,0.0620,320.8960,154.4689,128.3252,0,U,41382,999,3779,0,-.282E-5,0
IRNSS-1F,2016-015A,2026-07-14T19:56:38.694624,1.00266076,.00176921,5.4163,96.1431,180.1147,348.1022,0,U,41384,999,3794,0,.145E-5,0
BEIDOU-2 IGSO-6,2016-021A,2026-06-26T02:38:38.671584,1.00258926,.0057558,60.2385,37.9495,231.0163,137.2672,0,U,41434,999,3757,0,-.145E-5,0
IRNSS-1G,2016-027A,2026-07-14T17:30:35.998848,1.00271137,.00060064,5.2616,96.8380,11.1116,216.9679,0,U,41469,999,3745,0,-.346E-5,0
JCSAT-2B,2016-028A,2026-07-14T19:16:56.428032,1.00270100,.00007876,0.0176,35.3388,77.3581,263.1953,0,U,41471,999,3740,0,-.174E-5,0
THAICOM 8,2016-031A,2026-07-14T08:39:27.759744,1.00270441,.000294,0.0745,49.0681,25.2774,66.2255,0,U,41552,999,3699,0,-.128E-5,0
INTELSAT 31 (IS-31),2016-035A,2026-07-13T21:34:01.136064,1.00270917,.0001186,0.0229,276.7908,13.0074,230.4271,0,U,41581,999,3695,0,-.156E-5,0
BEIDOU-2 G7,2016-037A,2026-07-14T19:04:35.111712,1.00273683,.00059423,1.7856,69.4854,359.4841,260.3687,0,U,41586,999,716,0,-.363E-5,0
ABS-2A (MONGOLSAT-1),2016-038A,2026-07-14T22:12:09.884160,1.00269160,.00012237,0.0124,36.6305,22.5786,281.2996,0,U,41588,999,3698,0,-.92E-6,0
EUTELSAT 117 WEST B,2016-038B,2026-07-13T22:07:27.213600,1.00269922,.00002666,0.0083,162.9812,316.7358,26.9360,0,U,41589,999,3693,0,-.17E-6,0
BRISAT,2016-039A,2026-07-14T14:07:54.625152,1.00268660,.00018975,0.0189,30.7279,84.5968,179.5972,0,U,41591,999,3688,0,0,0
ECHOSTAR 18,2016-039B,2026-07-14T04:34:14.244960,1.00271148,.00013658,0.0179,38.9958,85.5892,174.6593,0,U,41592,999,3689,0,-.289E-5,0
MUOS-5,2016-041A,2026-07-13T23:13:32.308320,1.00271761,.01995019,2.1476,302.1882,260.6333,332.2567,0,U,41622,999,3735,0,-.136E-5,0
TIANTONG-1 1,2016-048A,2026-07-14T22:27:12.632832,1.00268933,.00049517,3.9016,43.6249,58.3826,268.9619,0,U,41725,999,3654,0,-.327E-5,0
JCSAT-16,2016-050A,2026-07-14T19:14:04.202592,1.00270551,.00008464,0.0178,36.8384,90.6148,237.6656,0,U,41729,999,3634,0,-.26E-5,0
USA 270,2016-052A,2026-07-14T10:51:22.391136,1.00267800,.0009408,4.2649,76.8388,101.7031,42.7683,0,U,41744,999,2840,0,-.362E-5,0
USA 271,2016-052B,2026-07-14T02:57:21.919968,1.00268559,.0011085,4.2370,76.9135,165.9764,191.3847,0,U,41745,999,2818,0,-.3E-5,0
INTELSAT 36 (IS-36),2016-053A,2026-07-14T22:22:21.420768,1.00270305,.00024062,0.0108,29.2174,310.2810,357.3528,0,U,41747,999,3623,0,-.33E-6,0
INSAT-3DR,2016-054A,2026-07-14T22:12:21.884256,1.00270687,.0010588,0.0692,88.6710,181.3056,69.8905,0,U,41752,999,3609,0,-.86E-6,0
GSAT-18,2016-060A,2026-07-14T22:12:21.884256,1.00271221,.00052385,0.0346,90.1102,348.4330,261.2911,0,U,41793,999,3580,0,-.85E-6,0
SKY MUSTER 2 (NBN1B),2016-060B,2026-07-14T17:31:37.309152,1.00269327,.00015934,0.0200,47.5294,74.1319,218.6380,0,U,41794,999,3579,0,0,0
HIMAWARI-9,2016-064A,2026-07-14T14:05:07.738368,1.00265737,.0002288,0.0126,316.2514,222.2337,105.9965,0,U,41836,999,3548,0,0,0
SHIJIAN-17 (SJ-17),2016-065A,2026-07-14T19:28:17.838048,0.99865478,.0001859,5.8209,72.2691,45.4823,301.8411,0,U,41838,999,3547,0,.61E-6,0
